{"type": "FeatureCollection", "features": [{"type": "Feature", "properties": {"norad_id": 36828, "name": "BEIDOU-2 IGSO-1 (C06)", "group": "beidou", "lat": -54.009957468013575, "lon": 67.39077425426959, "alt_km": 35651.41972639356, "timestamp": "2025-12-16T15:45:51.310737+00:00", "meta": {"OBJECT_NAME": "BEIDOU-2 IGSO-1 (C06)", "OBJECT_ID": "2010-036A", "EPOCH": "2025-12-14T21:38:21.623424", "MEAN_MOTION": 1.00275796, "ECCENTRICITY": 0.00512569, "INCLINATION": 54.2866, "RA_OF_ASC_NODE": 164.6279, "ARG_OF_PERICENTER": 215.8888, "MEAN_ANOMALY": 135.7931, "EPHEMERIS_TYPE": 0, "CLASSIFICATION_TYPE": "U", "NORAD_CAT_ID": 36828, "ELEMENT_SET_NO": 999, "REV_AT_EPOCH": 5624, "BSTAR": 0, "MEAN_MOTION_DOT": -2.4e-07, "MEAN_MOTION_DDOT": 0}, "tle": {"line1": "1 36828U 10036A   25348.90163916 -.00000024  00000+0  00000+0 0  9999", "line2": "2 36828  54.2866 164.6279 0051256 215.8888 135.7931  1.00275796 56247"}}, "geometry": {"type": "Point", "coordinates": [67.39077425426959, -54.009957468013575]}}, {"type": "Feature", "properties": {"norad_id": 37210, "name": "BEIDOU-2 G4 (C04)", "group": "beidou", "lat": 2.5357938543578924, "lon": 121.9560054413572, "alt_km": 35820.07509655083, "timestamp": "2025-12-16T15:45:51.310760+00:00", "meta": {"OBJECT_NAME": "BEIDOU-2 G4 (C04)", "OBJECT_ID": "2010-057A", "EPOCH": "2025-12-15T22:42:35.160192", "MEAN_MOTION": 1.00271903, "ECCENTRICITY": 0.00105925, "INCLINATION": 3.1926, "RA_OF_ASC_NODE": 69.9278, "ARG_OF_PERICENTER": 192.045, "MEAN_ANOMALY": 323.5948, "EPHEMERIS_TYPE": 0, "CLASSIFICATION_TYPE": "U", "NORAD_CAT_ID": 37210, "ELEMENT_SET_NO": 999, "REV_AT_EPOCH": 5545, "BSTAR": 0, "MEAN_MOTION_DOT": -9.1e-07, "MEAN_MOTION_DDOT": 0}, "tle": {"line1": "1 37210U 10057A   25349.94624028 -.00000091  00000+0  00000+0 0  9993", "line2": "2 37210   3.1926  69.9278 0010592 192.0450 323.5948  1.00271903 55451"}}, "geometry": {"type": "Point", "coordinates": [121.9560054413572, 2.5357938543578924]}}, {"type": "Feature", "properties": {"norad_id": 37256, "name": "BEIDOU-2 IGSO-2 (C07)", "group": "beidou", "lat": 18.12714304417601, "lon": 76.88070396559235, "alt_km": 35681.24968707571, "timestamp": "2025-12-16T15:45:51.310805+00:00", "meta": {"OBJECT_NAME": "BEIDOU-2 IGSO-2 (C07)", "OBJECT_ID": "2010-068A", "EPOCH": "2025-12-15T17:44:21.809184", "MEAN_MOTION": 1.00285693, "ECCENTRICITY": 0.00486119, "INCLINATION": 47.8802, "RA_OF_ASC_NODE": 274.1114, "ARG_OF_PERICENTER": 216.5623, "MEAN_ANOMALY": 327.802, "EPHEMERIS_TYPE": 0, "CLASSIFICATION_TYPE": "U", "NORAD_CAT_ID": 37256, "ELEMENT_SET_NO": 999, "REV_AT_EPOCH": 5495, "BSTAR": 0, "MEAN_MOTION_DOT": -2.2e-06, "MEAN_MOTION_DDOT": 0}, "tle": {"line1": "1 37256U 10068A   25349.73914131 -.00000220  00000+0  00000+0 0  9993", "line2": "2 37256  47.8802 274.1114 0048611 216.5623 327.8020  1.00285693 54958"}}, "geometry": {"type": "Point", "coordinates": [76.88070396559235, 18.12714304417601]}}, {"type": "Feature", "properties": {"norad_id": 37384, "name": "BEIDOU-2 IGSO-3 (C08)", "group": "beidou", "lat": 23.995964021021454, "lon": 55.50748923661662, "alt_km": 35925.04799352715, "timestamp": "2025-12-16T15:45:51.310831+00:00", "meta": {"OBJECT_NAME": "BEIDOU-2 IGSO-3 (C08)", "OBJECT_ID": "2011-013A", "EPOCH": "2025-12-15T15:08:39.193152", "MEAN_MOTION": 1.00270237, "ECCENTRICITY": 0.00354064, "INCLINATION": 62.1477, "RA_OF_ASC_NODE": 41.8879, "ARG_OF_PERICENTER": 187.6383, "MEAN_ANOMALY": 189.6615, "EPHEMERIS_TYPE": 0, "CLASSIFICATION_TYPE": "U", "NORAD_CAT_ID": 37384, "ELEMENT_SET_NO": 999, "REV_AT_EPOCH": 5382, "BSTAR": 0, "MEAN_MOTION_DOT": -1.9e-06, "MEAN_MOTION_DDOT": 0}, "tle": {"line1": "1 37384U 11013A   25349.63100918 -.00000190  00000+0  00000+0 0  9991", "line2": "2 37384  62.1477  41.8879 0035406 187.6383 189.6615  1.00270237 53821"}}, "geometry": {"type": "Point", "coordinates": [55.50748923661662, 23.995964021021454]}}, {"type": "Feature", "properties": {"norad_id": 37763, "name": "BEIDOU-2 IGSO-4 (C09)", "group": "beidou", "lat": -49.83217407481401, "lon": 44.90412917193573, "alt_km": 35194.69088672883, "timestamp": "2025-12-16T15:45:51.310852+00:00", "meta": {"OBJECT_NAME": "BEIDOU-2 IGSO-4 (C09)", "OBJECT_ID": "2011-038A", "EPOCH": "2025-12-15T07:50:06.120672", "MEAN_MOTION": 1.00281785, "ECCENTRICITY": 0.01493054, "INCLINATION": 54.5835, "RA_OF_ASC_NODE": 167.3229, "ARG_OF_PERICENTER": 230.222, "MEAN_ANOMALY": 258.6911, "EPHEMERIS_TYPE": 0, "CLASSIFICATION_TYPE": "U", "NORAD_CAT_ID": 37763, "ELEMENT_SET_NO": 999, "REV_AT_EPOCH": 5280, "BSTAR": 0, "MEAN_MOTION_DOT": 6.8e-07, "MEAN_MOTION_DDOT": 0}, "tle": {"line1": "1 37763U 11038A   25349.32645973  .00000068  00000+0  00000+0 0  9993", "line2": "2 37763  54.5835 167.3229 0149305 230.2220 258.6911  1.00281785 52800"}}, "geometry": {"type": "Point", "coordinates": [44.90412917193573, -49.83217407481401]}}, {"type": "Feature", "properties": {"norad_id": 37948, "name": "BEIDOU-2 IGSO-5 (C10)", "group": "beidou", "lat": 28.4492105446453, "lon": 64.64610341804004, "alt_km": 35708.68004790977, "timestamp": "2025-12-16T15:45:51.310876+00:00", "meta": {"OBJECT_NAME": "BEIDOU-2 IGSO-5 (C10)", "OBJECT_ID": "2011-073A", "EPOCH": "2025-12-12T18:24:47.608416", "MEAN_MOTION": 1.00291151, "ECCENTRICITY": 0.01101752, "INCLINATION": 48.0199, "RA_OF_ASC_NODE": 273.857, "ARG_OF_PERICENTER": 222.308, "MEAN_ANOMALY": 314.7254, "EPHEMERIS_TYPE": 0, "CLASSIFICATION_TYPE": "U", "NORAD_CAT_ID": 37948, "ELEMENT_SET_NO": 999, "REV_AT_EPOCH": 5126, "BSTAR": 0, "MEAN_MOTION_DOT": -2.21e-06, "MEAN_MOTION_DDOT": 0}, "tle": {"line1": "1 37948U 11073A   25346.76721769 -.00000221  00000+0  00000+0 0  9992", "line2": "2 37948  48.0199 273.8570 0110175 222.3080 314.7254  1.00291151 51268"}}, "geometry": {"type": "Point", "coordinates": [64.64610341804004, 28.4492105446453]}}, {"type": "Feature", "properties": {"norad_id": 38091, "name": "BEIDOU-2 G5 (C05)", "group": "beidou", "lat": -2.3634290878440805, "lon": 21.044559257093194, "alt_km": 35776.415446946165, "timestamp": "2025-12-16T15:45:51.310899+00:00", "meta": {"OBJECT_NAME": "BEIDOU-2 G5 (C05)", "OBJECT_ID": "2012-008A", "EPOCH": "2025-12-16T10:12:40.413600", "MEAN_MOTION": 1.00277384, "ECCENTRICITY": 0.0012454, "INCLINATION": 3.118, "RA_OF_ASC_NODE": 70.6994, "ARG_OF_PERICENTER": 229.699, "MEAN_ANOMALY": 356.9431, "EPHEMERIS_TYPE": 0, "CLASSIFICATION_TYPE": "U", "NORAD_CAT_ID": 38091, "ELEMENT_SET_NO": 999, "REV_AT_EPOCH": 5053, "BSTAR": 0, "MEAN_MOTION_DOT": 7.6e-07, "MEAN_MOTION_DDOT": 0}, "tle": {"line1": "1 38091U 12008A   25350.42546775  .00000076  00000+0  00000+0 0  9998", "line2": "2 38091   3.1180  70.6994 0012454 229.6990 356.9431  1.00277384 50530"}}, "geometry": {"type": "Point", "coordinates": [21.044559257093194, -2.3634290878440805]}}, {"type": "Feature", "properties": {"norad_id": 38250, "name": "BEIDOU-2 M3 (C11)", "group": "beidou", "lat": 18.68398605028676, "lon": -35.76833899413405, "alt_km": 21547.181680918835, "timestamp": "2025-12-16T15:45:51.310914+00:00", "meta": {"OBJECT_NAME": "BEIDOU-2 M3 (C11)", "OBJECT_ID": "2012-018A", "EPOCH": "2025-12-13T22:30:51.861600", "MEAN_MOTION": 1.86229879, "ECCENTRICITY": 0.00242907, "INCLINATION": 55.9188, "RA_OF_ASC_NODE": 311.1166, "ARG_OF_PERICENTER": 274.3199, "MEAN_ANOMALY": 85.3911, "EPHEMERIS_TYPE": 0, "CLASSIFICATION_TYPE": "U", "NORAD_CAT_ID": 38250, "ELEMENT_SET_NO": 999, "REV_AT_EPOCH": 9249, "BSTAR": 0, "MEAN_MOTION_DOT": -9.6e-07, "MEAN_MOTION_DDOT": 0}, "tle": {"line1": "1 38250U 12018A   25347.93810025 -.00000096  00000+0  00000+0 0  9993", "line2": "2 38250  55.9188 311.1166 0024290 274.3199  85.3911  1.86229879 92490"}}, "geometry": {"type": "Point", "coordinates": [-35.76833899413405, 18.68398605028676]}}, {"type": "Feature", "properties": {"norad_id": 38251, "name": "BEIDOU-2 M4 (C12)", "group": "beidou", "lat": 50.20304592245057, "lon": 4.841974625735533, "alt_km": 21559.92211191013, "timestamp": "2025-12-16T15:45:51.310925+00:00", "meta": {"OBJECT_NAME": "BEIDOU-2 M4 (C12)", "OBJECT_ID": "2012-018B", "EPOCH": "2025-12-13T07:59:48.422112", "MEAN_MOTION": 1.86229462, "ECCENTRICITY": 0.00154528, "INCLINATION": 55.8208, "RA_OF_ASC_NODE": 310.3658, "ARG_OF_PERICENTER": 277.4494, "MEAN_ANOMALY": 82.3644, "EPHEMERIS_TYPE": 0, "CLASSIFICATION_TYPE": "U", "NORAD_CAT_ID": 38251, "ELEMENT_SET_NO": 999, "REV_AT_EPOCH": 9248, "BSTAR": 0, "MEAN_MOTION_DOT": -9.5e-07, "MEAN_MOTION_DDOT": 0}, "tle": {"line1": "1 38251U 12018B   25347.33319933 -.00000095  00000+0  00000+0 0  9999", "line2": "2 38251  55.8208 310.3658 0015452 277.4494  82.3644  1.86229462 92489"}}, "geometry": {"type": "Point", "coordinates": [4.841974625735533, 50.20304592245057]}}, {"type": "Feature", "properties": {"norad_id": 38775, "name": "BEIDOU-2 M6 (C14)", "group": "beidou", "lat": -55.57892409449297, "lon": -35.26524074997679, "alt_km": 21529.677008264858, "timestamp": "2025-12-16T15:45:51.310937+00:00", "meta": {"OBJECT_NAME": "BEIDOU-2 M6 (C14)", "OBJECT_ID": "2012-050B", "EPOCH": "2025-12-14T02:49:55.180128", "MEAN_MOTION": 1.86230875, "ECCENTRICITY": 0.0011244, "INCLINATION": 56.3796, "RA_OF_ASC_NODE": 69.0216, "ARG_OF_PERICENTER": 344.0149, "MEAN_ANOMALY": 15.9678, "EPHEMERIS_TYPE": 0, "CLASSIFICATION_TYPE": "U", "NORAD_CAT_ID": 38775, "ELEMENT_SET_NO": 999, "REV_AT_EPOCH": 8986, "BSTAR": 0, "MEAN_MOTION_DOT": -8.2e-07, "MEAN_MOTION_DDOT": 0}, "tle": {"line1": "1 38775U 12050B   25348.11799977 -.00000082  00000+0  00000+0 0  9999", "line2": "2 38775  56.3796  69.0216 0011244 344.0149  15.9678  1.86230875 89866"}}, "geometry": {"type": "Point", "coordinates": [-35.26524074997679, -55.57892409449297]}}]}